{"norad_cat_id":"23604","object_name":"SL-8 R/B","object_id":"1995-032B","object_type":"ROCKET BODY","country_code":"CIS","epoch":"2026-05-30T04:47:24.799776","creation_date":"2026-05-30T07:36:53","launch_date":"1995-07-05","decay_date":null,"inclination":82.9047,"eccentricity":0.0025259,"mean_motion":13.74550461,"period":104.762,"semimajor_axis":7361.416,"apoapsis":1001.876,"periapsis":964.687,"tle_line0":"0 SL-8 R/B","tle_line1":"1 23604U 95032B   26150.19959259  .00000071  00000-0  58560-4 0  9993","tle_line2":"2 23604  82.9047 244.4012 0025259 135.5974 224.7212 13.74550461549814","fetched_at":"2026-05-30T16:18:06.042337+00:00"}
{"norad_cat_id":"54644","object_name":"ONEWEB-0539","object_id":"2022-166C","object_type":"PAYLOAD","country_code":"UK","epoch":"2026-05-30T04:47:24.635616","creation_date":"2026-05-30T07:36:53","launch_date":"2022-12-08","decay_date":null,"inclination":87.9264,"eccentricity":0.0002128,"mean_motion":13.21826074,"period":108.94,"semimajor_axis":7555.89,"apoapsis":1179.363,"periapsis":1176.147,"tle_line0":"0 ONEWEB-0539","tle_line1":"1 54644U 22166C   26150.19959069  .00000051  00000-0  91380-4 0  9993","tle_line2":"2 54644  87.9264 247.5489 0002128  95.1902 264.9474 13.21826074169162","fetched_at":"2026-05-30T16:18:06.042337+00:00"}
{"norad_cat_id":"59810","object_name":"OBJECT A","object_id":"2024-095A","object_type":"UNKNOWN","country_code":"PRC","epoch":"2026-05-30T04:47:23.061408","creation_date":"2026-05-30T07:36:53","launch_date":"2024-05-21","decay_date":null,"inclination":97.535,"eccentricity":0.0002812,"mean_motion":15.11170233,"period":95.29,"semimajor_axis":6910.767,"apoapsis":534.575,"periapsis":530.689,"tle_line0":"0 OBJECT A","tle_line1":"1 59810U 24095A   26150.19957247  .00005952  00000-0  35845-3 0  9990","tle_line2":"2 59810  97.5350 229.3696 0002812  30.6563 329.4831 15.11170233111420","fetched_at":"2026-05-30T16:18:06.042337+00:00"}
{"norad_cat_id":"45794","object_name":"GAOFEN 9 03","object_id":"2020-039A","object_type":"PAYLOAD","country_code":"PRC","epoch":"2026-05-30T04:47:22.517952","creation_date":"2026-05-30T07:36:53","launch_date":"2020-06-17","decay_date":null,"inclination":97.5363,"eccentricity":0.0012636,"mean_motion":15.32094098,"period":93.989,"semimajor_axis":6847.702,"apoapsis":478.22,"periapsis":460.915,"tle_line0":"0 GAOFEN 9 03","tle_line1":"1 45794U 20039A   26150.19956618  .00009903  00000-0  32134-3 0  9999","tle_line2":"2 45794  97.5363 283.7625 0012636 141.3994 218.8153 15.32094098331002","fetched_at":"2026-05-30T16:18:06.042337+00:00"}
{"norad_cat_id":"43764","object_name":"POLAR SCOUT KODIAK","object_id":"2018-099G","object_type":"PAYLOAD","country_code":"US","epoch":"2026-05-30T04:47:21.704064","creation_date":"2026-05-30T07:26:56","launch_date":"2018-12-03","decay_date":null,"inclination":97.4172,"eccentricity":0.0005101,"mean_motion":15.72480748,"period":91.575,"semimajor_axis":6729.947,"apoapsis":355.245,"periapsis":348.379,"tle_line0":"0 POLAR SCOUT KODIAK","tle_line1":"1 43764U 18099G   26150.19955676  .00191169  00000-0  14070-2 0  9994","tle_line2":"2 43764  97.4172 232.7214 0005101 250.1459 109.9255 15.72480748412105","fetched_at":"2026-05-30T16:18:06.042337+00:00"}
{"norad_cat_id":"64049","object_name":"OBJECT B","object_id":"2025-103B","object_type":"UNKNOWN","country_code":"PRC","epoch":"2026-05-30T04:47:20.723424","creation_date":"2026-05-30T07:46:57","launch_date":"2025-05-17","decay_date":null,"inclination":97.3804,"eccentricity":8.87e-05,"mean_motion":15.19805294,"period":94.749,"semimajor_axis":6884.566,"apoapsis":507.041,"periapsis":505.82,"tle_line0":"0 OBJECT B","tle_line1":"1 64049U 25103B   26150.19954541  .00004594  00000-0  21766-3 0  9993","tle_line2":"2 64049  97.3804 222.4649 0000887 193.6990 166.4221 15.19805294 57339","fetched_at":"2026-05-30T16:18:06.042337+00:00"}
{"norad_cat_id":"64087","object_name":"OBJECT A","object_id":"2025-108A","object_type":"UNKNOWN","country_code":"PRC","epoch":"2026-05-30T04:47:18.920256","creation_date":"2026-05-30T07:46:57","launch_date":"2025-05-21","decay_date":null,"inclination":97.4776,"eccentricity":0.000303,"mean_motion":15.16012822,"period":94.986,"semimajor_axis":6896.042,"apoapsis":519.997,"periapsis":515.818,"tle_line0":"0 OBJECT A","tle_line1":"1 64087U 25108A   26150.19952454  .00007012  00000-0  36827-3 0  9993","tle_line2":"2 64087  97.4776 225.1884 0003030  38.0778 322.0669 15.16012822 56597","fetched_at":"2026-05-30T16:18:06.042337+00:00"}
{"norad_cat_id":"67776","object_name":"KUIPER-00209","object_id":"2026-030N","object_type":"PAYLOAD","country_code":"US","epoch":"2026-05-30T04:47:17.661408","creation_date":"2026-05-30T07:26:56","launch_date":"2026-02-12","decay_date":null,"inclination":51.8983,"eccentricity":2.81e-05,"mean_motion":14.79919762,"period":97.303,"semimajor_axis":7007.714,"apoapsis":629.776,"periapsis":629.383,"tle_line0":"0 KUIPER-00209","tle_line1":"1 67776U 26030N   26150.19950997 -.00000674  00000-0 -59491-4 0  9998","tle_line2":"2 67776  51.8983 207.7667 0000281 199.1261 160.9691 14.79919762 17313","fetched_at":"2026-05-30T16:18:06.042337+00:00"}
{"norad_cat_id":"25682","object_name":"LANDSAT 7","object_id":"1999-020A","object_type":"PAYLOAD","country_code":"US","epoch":"2026-05-30T04:47:17.054880","creation_date":"2026-05-30T07:56:36","launch_date":"1999-04-15","decay_date":null,"inclination":97.8579,"eccentricity":0.0001695,"mean_motion":14.63899693,"period":98.367,"semimajor_axis":7058.747,"apoapsis":681.809,"periapsis":679.416,"tle_line0":"0 LANDSAT 7","tle_line1":"1 25682U 99020A   26150.19950295  .00000555  00000-0  11462-3 0  9999","tle_line2":"2 25682  97.8579 154.6600 0001695  99.4118 325.2476 14.63899693443216","fetched_at":"2026-05-30T16:18:06.042337+00:00"}
{"norad_cat_id":"65986","object_name":"SDA_1676","object_id":"2025-230N","object_type":"PAYLOAD","country_code":"US","epoch":"2026-05-30T04:47:12.359040","creation_date":"2026-05-30T07:26:56","launch_date":"2025-10-15","decay_date":null,"inclination":81.3022,"eccentricity":0.0001151,"mean_motion":13.78913918,"period":104.43,"semimajor_axis":7345.878,"apoapsis":968.589,"periapsis":966.898,"tle_line0":"0 SDA_1676","tle_line1":"1 65986U 25230N   26150.19944860  .00000084  00000-0  71258-4 0  9990","tle_line2":"2 65986  81.3022 228.9925 0001151 126.1695 233.9565 13.78913918 31284","fetched_at":"2026-05-30T16:18:06.042337+00:00"}
{"norad_cat_id":"61719","object_name":"STARLINK-32344","object_id":"2024-196N","object_type":"PAYLOAD","country_code":"US","epoch":"2026-05-30T04:47:11.402592","creation_date":"2026-05-30T07:36:53","launch_date":"2024-10-30","decay_date":null,"inclination":53.1613,"eccentricity":0.0001575,"mean_motion":15.30200752,"period":94.105,"semimajor_axis":6853.35,"apoapsis":476.294,"periapsis":474.135,"tle_line0":"0 STARLINK-32344","tle_line1":"1 61719U 24196N   26150.19943753  .00000184  00000-0  18338-4 0  9991","tle_line2":"2 61719  53.1613  82.9097 0001575 107.1935 252.9239 15.30200752 89637","fetched_at":"2026-05-30T16:18:06.042337+00:00"}
{"norad_cat_id":"60549","object_name":"ICEYE-X40","object_id":"2024-149CK","object_type":"PAYLOAD","country_code":"UAE","epoch":"2026-05-30T04:47:08.383776","creation_date":"2026-05-30T07:36:53","launch_date":"2024-08-16","decay_date":null,"inclination":97.6802,"eccentricity":0.0005424,"mean_motion":14.97878897,"period":96.136,"semimajor_axis":6951.588,"apoapsis":577.224,"periapsis":569.683,"tle_line0":"0 ICEYE-X40","tle_line1":"1 60549U 24149CK  26150.19940259  .00002285  00000-0  19899-3 0  9993","tle_line2":"2 60549  97.6802 226.9854 0005424 131.0836 229.0856 14.97878897 97388","fetched_at":"2026-05-30T16:18:06.042337+00:00"}
{"norad_cat_id":"11296","object_name":"COSMOS 1081","object_id":"1979-024A","object_type":"PAYLOAD","country_code":"CIS","epoch":"2026-05-30T04:47:08.261088","creation_date":"2026-05-30T07:26:56","launch_date":"1979-03-15","decay_date":null,"inclination":74.0355,"eccentricity":0.0038883,"mean_motion":12.57293138,"period":114.532,"semimajor_axis":7812.274,"apoapsis":1464.516,"periapsis":1403.763,"tle_line0":"0 COSMOS 1081","tle_line1":"1 11296U 79024A   26150.19940117 -.00000012  00000-0  24770-4 0  9995","tle_line2":"2 11296  74.0355  48.9590 0038883  94.9194 339.0522 12.57293138166666","fetched_at":"2026-05-30T16:18:06.042337+00:00"}
{"norad_cat_id":"48314","object_name":"STARLINK-2549","object_id":"2021-036AQ","object_type":"PAYLOAD","country_code":"US","epoch":"2026-05-30T04:47:04.733376","creation_date":"2026-05-30T07:36:53","launch_date":"2021-04-29","decay_date":null,"inclination":53.1604,"eccentricity":0.0001135,"mean_motion":15.31733803,"period":94.011,"semimajor_axis":6848.776,"apoapsis":471.419,"periapsis":469.864,"tle_line0":"0 STARLINK-2549","tle_line1":"1 48314U 21036AQ  26150.19936034  .00017803  00000-0  58349-3 0  9992","tle_line2":"2 48314  53.1604  71.7610 0001135  96.6788 263.4342 15.31733803280667","fetched_at":"2026-05-30T16:18:06.042337+00:00"}
{"norad_cat_id":"58908","object_name":"GEESAT 2-04","object_id":"2024-023D","object_type":"PAYLOAD","country_code":"PRC","epoch":"2026-05-30T04:47:04.477632","creation_date":"2026-05-30T07:36:53","launch_date":"2024-02-02","decay_date":null,"inclination":49.9931,"eccentricity":0.0006372,"mean_motion":14.97085059,"period":96.187,"semimajor_axis":6954.045,"apoapsis":580.342,"periapsis":571.479,"tle_line0":"0 GEESAT 2-04","tle_line1":"1 58908U 24023D   26150.19935738  .00003856  00000-0  35216-3 0  9992","tle_line2":"2 58908  49.9931  48.4112 0006372 329.3855  30.6716 14.97085059126639","fetched_at":"2026-05-30T16:18:06.042337+00:00"}
